P/2016 R4 (Gibbs),e,10.8734,168.2844,174.1309,5.334236,0.0800011,0.47565356,216.3134,12/19.0/2023,2000,g 12.5,4.0
# From MPC105543
P/2016 S1 (PANSTARRS),e,94.7396,227.6776,273.2164,8.272243,0.0414256,0.71103076,102.1895,12/19.0/2023,2000,g 12.0,4.0
# From MPC106345
P/2016 WM48 (Lemmon),e,117.6274,59.9507,36.1704,8.172424,0.0421869,0.78361121,104.9795,12/19.0/2023,2000,g 15.0,4.0
# From MPEC 2021-P47
C/2016 X1 (Lemmon),e,26.4657,256.3129,224.5148,1659,0.0000146,0.99544544,0.0000,04/28.6465/2019,2000,g  6.0,4.0
# From MPEC 2022-OB6
C/2017 B3 (LINEAR),e,54.1731,2.1882,284.8315,10396,0.0000009,0.99962167,0.0000,01/31.4425/2019,2000,g  6.0,4.0
# From MPC103847
P/2017 B4 (PANSTARRS),e,20.0584,121.4578,11.0197,4.410520,0.1064068,0.36495152,359.9130,01/05.0/2017,2000,g 14.5,4.0
# From MPEC 2022-OB6
P/2017 D1 (Fuls),e,20.7719,82.1986,7.9769,4.825872,0.0929695,0.43748925,254.1128,12/19.0/2023,2000,g 14.0,4.0
# From MPEC 2022-OB6
P/2017 D4 (PANSTARRS),e,10.5549,264.9016,212.1346,7.544511,0.0475617,0.62976433,126.4684,12/19.0/2023,2000,g 13.0,4.0
# From MPC104794
P/2017 G1 (PANSTARRS),e,4.7885,249.7077,224.2922,7.271650,0.0502637,0.65452889,140.2245,12/19.0/2023,2000,g 13.5,4.0
# From MPC108595
P/2017 G2 (PANSTARRS),e,47.9668,79.8833,105.3073,8.044259,0.0431991,0.64786645,102.9897,12/19.0/2023,2000,g 13.0,4.0
# From MPEC 2023-XP6
C/2017 K2 (PANSTARRS),h,12/19.6569/2022,87.5684,88.2330,236.2082,1.000556,1.797256,2000,1.5,4.0
# From MPEC 2021-N06
P/2017 K3 (Gasparovic),e,4.2737,354.3061,253.3420,5.585050,0.0746730,0.57888767,179.1330,12/19.0/2023,2000,g 14.5,4.0
# From MPEC 2021-P47
C/2017 K5 (PANSTARRS),h,03/26.9984/2020,82.2660,102.4274,172.0426,1.004107,7.685296,2000,5.0,4.0
# From MPEC 2022-OB6
C/2017 M4 (ATLAS),h,01/17.9321/2019,105.6268,66.0108,167.5444,1.000885,3.246328,2000,6.0,4.0
# From MPC114599
P/2017 P1 (PANSTARRS),e,7.6878,221.4622,122.7791,7.919284,0.0442257,0.31020902,88.6746,12/19.0/2023,2000,g 10.0,4.0
# From MPEC 2022-OB6
P/2017 S8 (PANSTARRS),e,29.8460,191.5347,254.8641,2.778719,0.2127831,0.39096120,97.8160,12/19.0/2023,2000,g 16.0,4.0
# From MPEC 2022-YN2
C/2017 T2 (PANSTARRS),e,57.2877,64.4434,92.8520,1487,0.0000172,0.99891729,0.0000,05/05.0778/2020,2000,g  5.0,4.0
# From MPC115882
P/2017 TW13 (Lemmon),e,44.8652,322.2272,119.9135,7.135130,0.0517132,0.71063051,103.7003,12/19.0/2023,2000,g 15.0,2.0
# From MPEC 2022-K19
P/2017 U3 (PANSTARRS),e,15.9178,165.0909,296.2200,4.922359,0.0902494,0.10022882,154.4386,12/19.0/2023,2000,g 11.0,4.0
# From MPEC 2023-A50
C/2017 U7 (PANSTARRS),h,09/15.8958/2019,142.6280,276.2928,326.4621,1.002430,6.427812,2000,8.3,2.0
# From MPC114601
P/2017 W3 (Gibbs),e,18.1729,210.1604,327.7783,7.825310,0.0450248,0.50641300,95.5401,12/19.0/2023,2000,g 10.5,4.0
# From MPEC 2022-TD3
C/2017 Y2 (PANSTARRS),e,28.4279,66.0364,147.8774,715242,0.0000000,0.99999352,0.0000,11/04.4990/2020,2000,g 15.0,4.0
# From MPC111770
P/2017 Y3 (Leonard),e,27.5856,153.9057,67.5022,9.809019,0.0320823,0.86931765,68.6801,12/19.0/2023,2000,g 16.5,4.0
# From MPEC 2021-P47
C/2018 A3 (ATLAS),e,139.5535,194.3054,86.3853,348.7439,0.0001513,0.99058528,0.0000,01/09.8463/2019,2000,g  8.5,4.0
# From MPC109147
P/2018 A5 (PANSTARRS),e,23.6144,87.7838,359.4980,5.626261,0.0738540,0.52405774,168.0151,12/19.0/2023,2000,g 15.0,4.0
# From MPEC 2023-UR6
C/2018 A6 (Gibbs),e,77.0901,340.4012,264.3241,15.02000,0.0169317,0.79902070,27.4671,12/19.0/2023,2000,g  9.0,4.0
# From MPC114601
P/2018 C1 (Lemmon-Read),e,5.1077,270.2941,235.7067,5.651268,0.0733644,0.53220210,155.8856,12/19.0/2023,2000,g 13.5,4.0
# From MPEC 2022-M88
C/2018 DO4 (Lemmon),e,60.4638,251.3750,176.3358,25.47905,0.0076635,0.90532386,12.1411,12/19.0/2023,2000,g 11.0,4.0
# From MPEC 2021-R75
C/2018 F1 (Grauer),e,46.1016,177.2846,71.5430,228.5113,0.0002853,0.98688536,0.0000,12/10.9684/2018,2000,g 11.5,4.0
# From MPEC 2023-A50
C/2018 F4 (PANSTARRS),e,78.0862,26.5163,263.2097,2889,0.0000063,0.99880732,0.0000,12/02.2061/2019,2000,g 11.0,6.0
# From MPEC 2021-Y10
C/2018 F4-A,e,78.0864,26.5165,263.2065,2766,0.0000068,0.99875435,0.0000,12/02.1942/2019,2000,g 11.0,6.0
# From MPEC 2023-D41
C/2018 F4-B,e,78.0873,26.5160,263.1923,2978,0.0000061,0.99884314,0.0000,12/02.1310/2019,2000,g 11.0,6.0
# From MPC114602
P/2018 H2 (PANSTARRS),e,7.4177,67.9944,119.5813,4.392435,0.1070646,0.54124930,233.0170,12/19.0/2023,2000,g 16.6,2.0
# From MPEC 2021-R75
C/2018 KJ3 (Lemmon),e,136.6454,91.6782,217.6206,859.5460,0.0000391,0.99578531,0.0000,09/09.8256/2019,2000,g 12.2,2.0
# From MPC114602
P/2018 L1 (PANSTARRS),e,10.5793,268.5967,18.0135,3.655364,0.1410289,0.48137004,262.9840,12/19.0/2023,2000,g 15.0,4.0
# From MPEC 2021-P47
C/2018 L2 (ATLAS),e,67.2106,242.9867,56.3462,249.3400,0.0002503,0.99310727,0.0000,12/01.3436/2018,2000,g 10.0,4.0
# From MPC114603
P/2018 L4 (PANSTARRS),e,26.6044,145.2038,140.5832,4.946943,0.0895774,0.65849152,176.3521,12/19.0/2023,2000,g 17.5,4.0
# From MPC119996
P/2018 L5 (Leonard),e,2.2089,219.0577,93.9330,3.629188,0.1425574,0.36392342,292.7270,12/19.0/2023,2000,g 14.5,4.0
# From MPEC 2022-YN2
C/2018 N2 (ASASSN),h,11/11.7177/2019,77.5518,24.4922,25.2554,1.001478,3.130697,2000,6.0,4.0
# From MPEC 2023-XP6
P/2018 P3 (PANSTARRS),e,8.9149,59.1598,306.0133,3.004020,0.1892996,0.41720983,358.5339,12/19.0/2023,2000,g 14.5,4.0
# From MPC114603
P/2018 P4 (PANSTARRS),e,23.1018,353.1395,8.4575,6.689955,0.0569599,0.45012995,106.2835,12/19.0/2023,2000,g 12.0,4.0
# From MPEC 2021-P47
C/2018 P5 (PANSTARRS),e,7.2458,216.2503,132.0032,12.85291,0.0213896,0.64258575,37.5418,12/19.0/2023,2000,g 11.0,4.0
# From MPC118841
C/2018 R3 (Lemmon),e,69.7179,324.5402,112.7112,1619,0.0000151,0.99920777,0.0000,06/07.9958/2019,2000,g  9.5,4.0
# From MPC114603
C/2018 R5 (Lemmon),e,3.7482,171.1778,178.2259,22.92476,0.0089794,0.84124501,16.1998,12/19.0/2023,2000,g 11.5,4.0
# From MPEC 2022-QC6
C/2018 S2 (TESS),e,64.1252,85.1218,290.8453,14.36856,0.0180961,0.61868405,33.8078,12/19.0/2023,2000,g  7.5,4.0
# From MPEC 2023-N01
C/2018 U1 (Lemmon),h,11/02.9251/2021,108.3239,75.5064,180.4491,1.001234,4.991479,2000,5.0,4.0
# From MPC114604
C/2018 V1 (Machholz-Fujikawa-Iwamoto),h,12/03.0404/2018,144.1396,129.2757,89.3184,1.000399,0.391721,2000,12.0,4.0
# From MPC115884
C/2018 V2 (ATLAS),e,159.1669,357.1122,319.1261,25.13899,0.0078196,0.90094921,14.4635,12/19.0/2023,2000,g 15.0,4.0
# From MPEC 2023-CD7
P/2018 VN2 (Leonard),e,18.2604,226.4410,138.9159,4.061745,0.1204024,0.47855992,243.1636,12/19.0/2023,2000,g 15.0,4.0
# From MPEC 2022-VC5
A/2018 V3,e,164.9453,308.7485,3.6160,128.4983,0.0006766,0.98959072,0.0000,09/09.7829/2019,2000,g 15.7,2.0
# From MPEC 2022-M21
C/2018 V4 (Africano),e,69.0305,78.2663,359.9802,207.2133,0.0003304,0.98457782,0.0000,03/02.0284/2019,2000,g 12.5,4.0
# From MPEC 2021-P47
P/2018 V5 (Trujillo-Sheppard),e,10.5871,171.3254,260.6940,8.968090,0.0366990,0.47589398,69.7673,12/19.0/2023,2000,g 12.5,4.0
# From MPEC 2021-P47
C/2018 W1 (Catalina),e,83.4208,233.6557,251.2091,21.70453,0.0097472,0.93749396,16.3903,12/19.0/2023,2000,g 15.5,2.0
# From MPEC 2021-P47
C/2018 W2 (Africano),h,09/05.3253/2019,116.6081,181.8544,158.1471,1.000759,1.464082,2000,9.5,4.0
# From MPEC 2023-M14
A/2018 W3,e,104.8340,251.6843,313.9474,717.2993,0.0000513,0.99402072,0.0000,04/13.0878/2021,2000,g 10.7,2.0
# From MPC119996
C/2018 X2 (Fitzsimmons),e,23.0814,340.7569,161.9383,139.0490,0.0006011,0.98478057,0.0000,07/08.6442/2019,2000,g 12.0,4.0
# From MPC114604
C/2018 X3 (PANSTARRS),e,43.4135,78.8117,359.7715,12.38695,0.0226078,0.78282574,40.9907,12/19.0/2023,2000,g 14.5,4.0
# From MPEC 2023-HD1
C/2018 Y1 (Iwamoto),e,160.4329,147.4357,357.8757,127.7434,0.0006826,0.98993512,0.0000,02/04.9914/2019,2000,g  9.0,4.0
# From MPC114605
P/2018 Y2 (Africano),e,11.6881,297.1659,162.2718,7.453427,0.0484362,0.47968334,87.7299,12/19.0/2023,2000,g 11.5,4.0
# From MPC114605
P/2019 A1 (PANSTARRS),e,13.7573,312.2441,150.7185,5.114566,0.0852101,0.56970000,161.3765,12/19.0/2023,2000,g 16.0,4.0
# From MPEC 2021-P47
P/2019 A2 (ATLAS),e,14.8642,139.4094,323.8674,5.711995,0.0721975,0.38270048,133.8103,12/19.0/2023,2000,g 10.5,4.0
# From MPEC 2022-M21
P/2019 A3 (PANSTARRS),e,15.3748,31.3557,325.6482,3.143646,0.1768291,0.26607904,346.7981,12/19.0/2023,2000,g 16.0,4.0
# From MPEC 2022-L66
P/2019 A4 (PANSTARRS),e,13.3045,119.3668,343.0212,2.614140,0.2331905,0.08727890,67.6765,12/19.0/2023,2000,g 15.0,4.0
# From MPEC 2021-P47
C/2019 A5 (PANSTARRS),e,67.5486,146.5778,355.7745,21.47658,0.0099028,0.70610941,16.4050,12/19.0/2023,2000,g  9.5,4.0
# From MPC114605
P/2019 A6 (Lemmon-PANSTARRS),e,33.2730,280.1965,156.1924,5.356929,0.0794932,0.64028185,153.8849,12/19.0/2023,2000,g 16.0,4.0
# From MPC115884
P/2019 A8 (PANSTARRS),e,2.2099,114.5682,64.3401,4.324972,0.1095795,0.22954654,221.9423,12/19.0/2023,2000,g 16.0,4.0
# From MPC118842
C/2019 A9 (PANSTARRS),e,84.3205,278.4345,237.9082,39.15379,0.0040229,0.96347832,6.4644,12/19.0/2023,2000,g 15.0,4.0
# From MPEC 2022-L66
C/2019 B1 (Africano),e,23.4062,290.2943,174.8048,140.2887,0.0005932,0.98865630,0.0000,03/19.8722/2019,2000,g 16.0,4.0
# From MPC115885
P/2019 B2 (Groeller),e,16.9834,175.7336,0.8600,3.920125,0.1269855,0.35866900,212.1762,12/19.0/2023,2000,g 14.5,4.0
# From MPEC 2023-UR6
C/2019 B3 (PANSTARRS),e,66.5488,358.4255,263.9717,7523,0.0000015,0.99909259,0.0000,01/20.0797/2021,2000,g  5.5,4.0
# From MPEC 2021-P47
C/2019 C1 (ATLAS),e,36.0518,212.3926,319.0349,645.2950,0.0000601,0.98981434,0.0000,05/04.0803/2020,2000,g 10.0,4.0
# From MPEC 2022-O08
C/2019 D1 (Flewelling),e,33.9960,231.6472,70.7234,140.8788,0.0005894,0.98872255,0.0000,05/10.5246/2019,2000,g 13.0,4.0
# From MPEC 2023-XP6
C/2019 E3 (ATLAS),e,84.2990,347.2320,280.6998,7725,0.0000015,0.99866502,0.0000,11/15.2824/2023,2000,g  2.5,4.0
# From MPEC 2023-W26
C/2019 F1 (ATLAS-Africano),h,06/22.4140/2021,54.2357,38.6637,251.3405,1.001855,3.606854,2000,5.5,4.0
# From MPEC 2021-P47
C/2019 F2 (ATLAS),e,19.2965,175.4069,11.6419,16.59381,0.0145809,0.86467773,22.7977,12/19.0/2023,2000,g 12.0,4.0
# From MPEC 2021-P47
